     3.04           N: GNSS NAV DATA    E: GALILEO          RINEX VERSION / TYPE
cnvtToRINEX 3.14.0  convertToRINEX OPR  20250615 162934 UTC PGM / RUN BY / DATE 
----------------------------------------------------------- COMMENT             
GAL    0.0000D+00  0.0000D+00  0.0000D+00                   IONOSPHERIC CORR    
GAUT  0.0000000000D+00 0.000000000D+00      0    0          TIME SYSTEM CORR    
GAGP  0.0000000000D+00 0.000000000D+00      0    0          TIME SYSTEM CORR    
                                                            END OF HEADER       
E15 2025 06 15 14 20 00-0.180284318049D-03-0.245847786573D-11 0.000000000000D+00
     0.860000000000D+02 0.128156250000D+03 0.267153985179D-08 0.151339131896D+01
     0.612623989582D-05 0.132859568112D-03 0.446103513241D-05 0.544060947990D+04
     0.516000000000D+05-0.335276126862D-07 0.153966621273D+01 0.838190317154D-07
     0.999211887152D+00 0.264468750000D+03 0.666543044650D-01-0.550558647263D-08
     0.205722854897D-09 0.258000000000D+03 0.237100000000D+04 0.000000000000D+00
     0.312000000000D+01 0.000000000000D+00 0.535510480404D-08 0.000000000000D+00
     0.527200000000D+05 0.000000000000D+00 0.000000000000D+00 0.000000000000D+00
E34 2025 06 15 14 30 00-0.187202647794D-03-0.228794760915D-11 0.000000000000D+00
     0.870000000000D+02 0.133500000000D+03 0.265618206922D-08 0.317656794103D+00
     0.626221299171D-05 0.282156746835D-03 0.475347042084D-05 0.544060643578D+04
     0.522000000000D+05-0.447034835815D-07 0.153785518452D+01-0.130385160446D-07
     0.999077932132D+00 0.256937500000D+03 0.211889838286D+01-0.543701218767D-08
     0.201794119821D-09 0.516000000000D+03 0.237100000000D+04 0.000000000000D+00
     0.312000000000D+01 0.000000000000D+00 0.279396772385D-08 0.395812094212D-08
     0.528640000000D+05 0.000000000000D+00 0.000000000000D+00 0.000000000000D+00
E15 2025 06 15 14 30 00-0.180284492671D-03-0.247268872045D-11 0.000000000000D+00
     0.870000000000D+02 0.126406250000D+03 0.266439669710D-08 0.158645663808D+01
     0.603497028351D-05 0.132723711431D-03 0.447034835815D-05 0.544060991669D+04
     0.522000000000D+05-0.465661287308D-07 0.153966281583D+01 0.763684511185D-07
     0.999212001259D+00 0.264281250000D+03 0.679744592948D-01-0.549808616021D-08
     0.213223167315D-09 0.516000000000D+03 0.237100000000D+04 0.000000000000D+00
     0.312000000000D+01 0.000000000000D+00 0.535510480404D-08 0.605359673500D-08
     0.528640000000D+05 0.000000000000D+00 0.000000000000D+00 0.000000000000D+00
E34 2025 06 15 14 30 00-0.187202647794D-03-0.228794760915D-11 0.000000000000D+00
     0.870000000000D+02 0.133500000000D+03 0.265618206922D-08 0.317656794103D+00
     0.626221299171D-05 0.282156746835D-03 0.475347042084D-05 0.544060643578D+04
     0.522000000000D+05-0.447034835815D-07 0.153785518452D+01-0.130385160446D-07
     0.999077932132D+00 0.256937500000D+03 0.211889838286D+01-0.543701218767D-08
     0.201794119821D-09 0.513000000000D+03 0.237100000000D+04 0.000000000000D+00
     0.312000000000D+01 0.000000000000D+00 0.279396772385D-08 0.395812094212D-08
     0.528850000000D+05 0.000000000000D+00 0.000000000000D+00 0.000000000000D+00
E15 2025 06 15 14 30 00-0.180284492671D-03-0.247268872045D-11 0.000000000000D+00
     0.870000000000D+02 0.126406250000D+03 0.266439669710D-08 0.158645663808D+01
     0.603497028351D-05 0.132723711431D-03 0.447034835815D-05 0.544060991669D+04
     0.522000000000D+05-0.465661287308D-07 0.153966281583D+01 0.763684511185D-07
     0.999212001259D+00 0.264281250000D+03 0.679744592948D-01-0.549808616021D-08
     0.213223167315D-09 0.513000000000D+03 0.237100000000D+04 0.000000000000D+00
     0.312000000000D+01 0.000000000000D+00 0.535510480404D-08 0.605359673500D-08
     0.528850000000D+05 0.000000000000D+00 0.000000000000D+00 0.000000000000D+00
E34 2025 06 15 14 30 00-0.187204626855D-03-0.228794760915D-11 0.000000000000D+00
     0.870000000000D+02 0.133500000000D+03 0.265618206922D-08 0.317656794103D+00
     0.626221299171D-05 0.282156746835D-03 0.475347042084D-05 0.544060643578D+04
     0.522000000000D+05-0.447034835815D-07 0.153785518452D+01-0.130385160446D-07
     0.999077932132D+00 0.256937500000D+03 0.211889838286D+01-0.543701218767D-08
     0.201794119821D-09 0.258000000000D+03 0.237100000000D+04 0.000000000000D+00
     0.312000000000D+01 0.000000000000D+00 0.279396772385D-08 0.000000000000D+00
     0.529200000000D+05 0.000000000000D+00 0.000000000000D+00 0.000000000000D+00
E15 2025 06 15 14 30 00-0.180285889655D-03-0.247268872045D-11 0.000000000000D+00
     0.870000000000D+02 0.126406250000D+03 0.266439669710D-08 0.158645663808D+01
     0.603497028351D-05 0.132723711431D-03 0.447034835815D-05 0.544060991669D+04
     0.522000000000D+05-0.465661287308D-07 0.153966281583D+01 0.763684511185D-07
     0.999212001259D+00 0.264281250000D+03 0.679744592948D-01-0.549808616021D-08
     0.213223167315D-09 0.258000000000D+03 0.237100000000D+04 0.000000000000D+00
     0.312000000000D+01 0.000000000000D+00 0.535510480404D-08 0.000000000000D+00
     0.529200000000D+05 0.000000000000D+00 0.000000000000D+00 0.000000000000D+00
E 5 2025 06 15 14 30 00 0.486049614847D-02 0.309796632791D-11 0.000000000000D+00
     0.870000000000D+02-0.145593750000D+03 0.275868633893D-08 0.166474387840D+01
    -0.670552253723D-05 0.275326310657D-03 0.913254916668D-05 0.544062101555D+04
     0.522000000000D+05-0.949949026108D-07-0.265685347236D+01-0.800937414169D-07
     0.964950208221D+00 0.150156250000D+03-0.529924241243D+00-0.531700718898D-08
    -0.296440919383D-10 0.516000000000D+03 0.237100000000D+04 0.000000000000D+00
     0.312000000000D+01 0.000000000000D+00 0.232830643654D-08 0.302679836750D-08
     0.533740000000D+05 0.000000000000D+00 0.000000000000D+00 0.000000000000D+00
E 5 2025 06 15 14 30 00 0.486049614847D-02 0.309796632791D-11 0.000000000000D+00
     0.870000000000D+02-0.145593750000D+03 0.275868633893D-08 0.166474387840D+01
    -0.670552253723D-05 0.275326310657D-03 0.913254916668D-05 0.544062101555D+04
     0.522000000000D+05-0.949949026108D-07-0.265685347236D+01-0.800937414169D-07
     0.964950208221D+00 0.150156250000D+03-0.529924241243D+00-0.531700718898D-08
    -0.296440919383D-10 0.513000000000D+03 0.237100000000D+04 0.000000000000D+00
     0.312000000000D+01 0.000000000000D+00 0.232830643654D-08 0.302679836750D-08
     0.533950000000D+05 0.000000000000D+00 0.000000000000D+00 0.000000000000D+00
E13 2025 06 15 14 30 00-0.357712269761D-04-0.596855898038D-12 0.000000000000D+00
     0.870000000000D+02 0.141687500000D+03 0.273047087793D-08 0.400576822410D+00
     0.676512718201D-05 0.153720960952D-03 0.380352139473D-05 0.544060434341D+04
     0.522000000000D+05 0.670552253723D-07 0.153974334362D+01 0.149011611938D-07
     0.999256267697D+00 0.276812500000D+03 0.454058420007D+00-0.552344435934D-08
     0.165721188667D-09 0.513000000000D+03 0.237100000000D+04 0.000000000000D+00
     0.312000000000D+01 0.000000000000D+00 0.442378222942D-08 0.465661287308D-08
     0.534250000000D+05 0.000000000000D+00 0.000000000000D+00 0.000000000000D+00
E13 2025 06 15 14 30 00-0.357712269761D-04-0.596855898038D-12 0.000000000000D+00
     0.870000000000D+02 0.141687500000D+03 0.273047087793D-08 0.400576822410D+00
     0.676512718201D-05 0.153720960952D-03 0.380352139473D-05 0.544060434341D+04
     0.522000000000D+05 0.670552253723D-07 0.153974334362D+01 0.149011611938D-07
     0.999256267697D+00 0.276812500000D+03 0.454058420007D+00-0.552344435934D-08
     0.165721188667D-09 0.516000000000D+03 0.237100000000D+04 0.000000000000D+00
     0.312000000000D+01 0.000000000000D+00 0.442378222942D-08 0.465661287308D-08
     0.534340000000D+05 0.000000000000D+00 0.000000000000D+00 0.000000000000D+00
E 5 2025 06 15 14 30 00 0.486049463507D-02 0.308375547320D-11 0.000000000000D+00
     0.870000000000D+02-0.145593750000D+03 0.275868633893D-08 0.166474387840D+01
    -0.670552253723D-05 0.275326310657D-03 0.913254916668D-05 0.544062101555D+04
     0.522000000000D+05-0.949949026108D-07-0.265685347236D+01-0.800937414169D-07
     0.964950208221D+00 0.150156250000D+03-0.529924241243D+00-0.531700718898D-08
    -0.296440919383D-10 0.258000000000D+03 0.237100000000D+04 0.000000000000D+00
     0.312000000000D+01 0.000000000000D+00 0.232830643654D-08 0.000000000000D+00
     0.534200000000D+05 0.000000000000D+00 0.000000000000D+00 0.000000000000D+00
E13 2025 06 15 14 30 00-0.357724493369D-04-0.596855898038D-12 0.000000000000D+00
     0.870000000000D+02 0.141687500000D+03 0.273047087793D-08 0.400576822410D+00
     0.676512718201D-05 0.153720960952D-03 0.380352139473D-05 0.544060434341D+04
     0.522000000000D+05 0.670552253723D-07 0.153974334362D+01 0.149011611938D-07
     0.999256267697D+00 0.276812500000D+03 0.454058420007D+00-0.552344435934D-08
     0.165721188667D-09 0.258000000000D+03 0.237100000000D+04 0.000000000000D+00
     0.312000000000D+01 0.000000000000D+00 0.442378222942D-08 0.000000000000D+00
     0.534700000000D+05 0.000000000000D+00 0.000000000000D+00 0.000000000000D+00
E 5 2025 06 15 14 40 00 0.486049806932D-02 0.309796632791D-11 0.000000000000D+00
     0.880000000000D+02-0.146531250000D+03 0.275868633893D-08 0.173849931303D+01
    -0.675581395626D-05 0.275155296549D-03 0.922754406929D-05 0.544062149620D+04
     0.528000000000D+05-0.782310962677D-07-0.265685655765D+01-0.968575477600D-07
     0.964950246257D+00 0.148437500000D+03-0.529294727113D+00-0.532165023952D-08
    -0.432160858377D-10 0.516000000000D+03 0.237100000000D+04 0.000000000000D+00
     0.312000000000D+01 0.000000000000D+00 0.232830643654D-08 0.302679836750D-08
     0.534640000000D+05 0.000000000000D+00 0.000000000000D+00 0.000000000000D+00
